[{"OBJECT_NAME":"STARLINK-34781","OBJECT_ID":"2025-165T","EPOCH":"2026-03-09T19:25:09.117120","MEAN_MOTION":15.05647045,"ECCENTRICITY":0.00010435,"INCLINATION":97.6023,"RA_OF_ASC_NODE":147.4275,"ARG_OF_PERICENTER":112.58,"MEAN_ANOMALY":247.5538,"EPHEMERIS_TYPE":0,"CLASSIFICATION_TYPE":"U","NORAD_CAT_ID":65073,"ELEMENT_SET_NO":999,"REV_AT_EPOCH":3481,"BSTAR":0.00036232994,"MEAN_MOTION_DOT":5.171e-5,"MEAN_MOTION_DDOT":0},{"OBJECT_NAME":"COSMOS 2251 DEB","OBJECT_ID":"1993-036AGL","EPOCH":"2026-03-09T14:26:26.254464","MEAN_MOTION":14.99089752,"ECCENTRICITY":0.0026997,"INCLINATION":74.0375,"RA_OF_ASC_NODE":36.8586,"ARG_OF_PERICENTER":98.2741,"MEAN_ANOMALY":23.5602,"EPHEMERIS_TYPE":0,"CLASSIFICATION_TYPE":"U","NORAD_CAT_ID":35023,"ELEMENT_SET_NO":999,"REV_AT_EPOCH":89579,"BSTAR":0.0019164,"MEAN_MOTION_DOT":0.00023496,"MEAN_MOTION_DDOT":0}]
